ONEWEB-0160             
1 48060U 21025U   23293.56069647 -.00000308  00000+0 -87784-3 0  9999
2 48060  87.9017 153.3745 0002648  70.6082 289.5333 13.13470049126142
ONEWEB-0163             
1 48061U 21025V   23293.16499567  .00000616  00000+0  16522-2 0  9995
2 48061  87.9030 153.4446 0001413  84.0934 276.0356 13.13467382126222
ONEWEB-0159             
1 48062U 21025W   23293.15441472  .00000349  00000+0  92002-3 0  9998
2 48062  87.9025 153.4334 0001653  87.5785 272.5534 13.13468614126139
ONEWEB-0164             
1 48063U 21025X   23293.51625565  .00000182  00000+0  46406-3 0  9998
2 48063  87.9024 153.3696 0001625  71.9418 288.1888 13.13471972126167
ONEWEB-0167             
1 48064U 21025Y   23293.08988851 -.00000020  00000+0 -89951-4 0  9997
2 48064  87.9029 153.4633 0001367  80.5800 279.5483 13.13468546126099
ONEWEB-0166             
1 48065U 21025Z   23293.56914907 -.00000235  00000+0 -67761-3 0  9994
2 48065  87.9025 153.3619 0001639  88.2918 271.8399 13.13468117126237
ONEWEB-0151             
1 48066U 21025AA  23293.87598900  .00000493  00000+0  13152-2 0  9998
2 48066  87.9024 153.3083 0001596  66.3804 293.7493 13.13466947126210
ONEWEB-0170             
1 48067U 21025AB  23293.12057269  .00000021  00000+0  22729-4 0  9994
2 48067  87.9025 153.4580 0002057  61.3836 298.7500 13.13472760126076
